{
  "type": "FeatureCollection",
  "features": [
    {
      "type": "Feature",
      "properties": {
        "norad_id": 51444,
        "name": "CSG-2",
        "group": "resource",
        "lat": 65.82141881221013,
        "lon": 152.18249232354313,
        "alt_km": 615.0646412602073,
        "timestamp": "2025-12-14T20:40:31.425687+00:00",
        "meta_object_name": "CSG-2",
        "meta_object_id": "2022-008A",
        "meta_epoch": "2025-12-14T07:24:43.253280",
        "meta_mean_motion": 14.82165074,
        "meta_eccentricity": 0.00014891,
        "meta_inclination": 97.8808,
        "meta_ra_of_asc_node": 169.6081,
        "meta_arg_of_pericenter": 81.2827,
        "meta_mean_anomaly": 278.8555,
        "meta_ephemeris_type": 0,
        "meta_classification_type": "U",
        "meta_norad_cat_id": 51444,
        "meta_element_set_no": 999,
        "meta_rev_at_epoch": 20920,
        "meta_bstar": 5.0376984e-05,
        "meta_mean_motion_dot": 3.49e-06,
        "meta_mean_motion_ddot": 0,
        "tle_line1": "1 51444U 22008A   25348.30883395  .00000349  00000+0  50377-4 0  9992",
        "tle_line2": "2 51444  97.8808 169.6081 0001489  81.2827 278.8555 14.82165074209202"
      },
      "geometry": {
        "type": "Point",
        "coordinates": [
          152.18249232354313,
          65.82141881221013
        ]
      }
    },
    {
      "type": "Feature",
      "properties": {
        "norad_id": 52912,
        "name": "GAOFEN-12 03",
        "group": "resource",
        "lat": -35.54959527419416,
        "lon": -118.18217428735663,
        "alt_km": 636.9495000334455,
        "timestamp": "2025-12-14T20:40:31.425697+00:00",
        "meta_object_name": "GAOFEN-12 03",
        "meta_object_id": "2022-069A",
        "meta_epoch": "2025-12-14T07:51:11.668896",
        "meta_mean_motion": 14.79616457,
        "meta_eccentricity": 0.00021619,
        "meta_inclination": 97.8481,
        "meta_ra_of_asc_node": 235.6395,
        "meta_arg_of_pericenter": 60.0157,
        "meta_mean_anomaly": 300.1269,
        "meta_ephemeris_type": 0,
        "meta_classification_type": "U",
        "meta_norad_cat_id": 52912,
        "meta_element_set_no": 999,
        "meta_rev_at_epoch": 18727,
        "meta_bstar": 0.00027993015,
        "meta_mean_motion_dot": 2.048e-05,
        "meta_mean_motion_ddot": 0,
        "tle_line1": "1 52912U 22069A   25348.32721839  .00002048  00000+0  27993-3 0  9991",
        "tle_line2": "2 52912  97.8481 235.6395 0002161  60.0157 300.1269 14.79616457187276"
      },
      "geometry": {
        "type": "Point",
        "coordinates": [
          -118.18217428735663,
          -35.54959527419416
        ]
      }
    },
    {
      "type": "Feature",
      "properties": {
        "norad_id": 54754,
        "name": "SWOT",
        "group": "resource",
        "lat": 52.79110361949475,
        "lon": -59.04675704300427,
        "alt_km": 887.9318437737857,
        "timestamp": "2025-12-14T20:40:31.425707+00:00",
        "meta_object_name": "SWOT",
        "meta_object_id": "2022-173A",
        "meta_epoch": "2025-12-14T06:41:46.190976",
        "meta_mean_motion": 14.00167213,
        "meta_eccentricity": 3.356e-05,
        "meta_inclination": 77.6107,
        "meta_ra_of_asc_node": 284.9118,
        "meta_arg_of_pericenter": 106.5532,
        "meta_mean_anomaly": 253.5657,
        "meta_ephemeris_type": 0,
        "meta_classification_type": "U",
        "meta_norad_cat_id": 54754,
        "meta_element_set_no": 999,
        "meta_rev_at_epoch": 15327,
        "meta_bstar": 7.2722206e-05,
        "meta_mean_motion_dot": 1.05e-06,
        "meta_mean_motion_ddot": 0,
        "tle_line1": "1 54754U 22173A   25348.27900684  .00000105  00000+0  72722-4 0  9997",
        "tle_line2": "2 54754  77.6107 284.9118 0000335 106.5532 253.5657 14.00167213153277"
      },
      "geometry": {
        "type": "Point",
        "coordinates": [
          -59.04675704300427,
          52.79110361949475
        ]
      }
    },
    {
      "type": "Feature",
      "properties": {
        "norad_id": 57654,
        "name": "GAOFEN-12 04",
        "group": "resource",
        "lat": 44.86106477836469,
        "lon": 92.54134522580638,
        "alt_km": 625.973936335633,
        "timestamp": "2025-12-14T20:40:31.425717+00:00",
        "meta_object_name": "GAOFEN-12 04",
        "meta_object_id": "2023-123A",
        "meta_epoch": "2025-12-14T08:42:33.049728",
        "meta_mean_motion": 14.79707295,
        "meta_eccentricity": 0.00013293,
        "meta_inclination": 97.9119,
        "meta_ra_of_asc_node": 264.0955,
        "meta_arg_of_pericenter": 75.0969,
        "meta_mean_anomaly": 285.039,
        "meta_ephemeris_type": 0,
        "meta_classification_type": "U",
        "meta_norad_cat_id": 57654,
        "meta_element_set_no": 999,
        "meta_rev_at_epoch": 12529,
        "meta_bstar": 0.00024284808,
        "meta_mean_motion_dot": 1.773e-05,
        "meta_mean_motion_ddot": 0,
        "tle_line1": "1 57654U 23123A   25348.36288252  .00001773  00000+0  24285-3 0  9997",
        "tle_line2": "2 57654  97.9119 264.0955 0001329  75.0969 285.0390 14.79707295125294"
      },
      "geometry": {
        "type": "Point",
        "coordinates": [
          92.54134522580638,
          44.86106477836469
        ]
      }
    },
    {
      "type": "Feature",
      "properties": {
        "norad_id": 59065,
        "name": "PARS 1",
        "group": "resource",
        "lat": -78.72326275537294,
        "lon": 0.9446535730610579,
        "alt_km": 457.5714736543878,
        "timestamp": "2025-12-14T20:40:31.425727+00:00",
        "meta_object_name": "PARS 1",
        "meta_object_id": "2024-039Q",
        "meta_epoch": "2025-12-14T08:33:42.069024",
        "meta_mean_motion": 15.41021026,
        "meta_eccentricity": 0.00124972,
        "meta_inclination": 97.4632,
        "meta_ra_of_asc_node": 319.3241,
        "meta_arg_of_pericenter": 67.4418,
        "meta_mean_anomaly": 292.8149,
        "meta_ephemeris_type": 0,
        "meta_classification_type": "U",
        "meta_norad_cat_id": 59065,
        "meta_element_set_no": 999,
        "meta_rev_at_epoch": 10013,
        "meta_bstar": 0.00031216479,
        "meta_mean_motion_dot": 0.00012834,
        "meta_mean_motion_ddot": 0,
        "tle_line1": "1 59065U 24039Q   25348.35673691  .00012834  00000+0  31216-3 0  9998",
        "tle_line2": "2 59065  97.4632 319.3241 0012497  67.4418 292.8149 15.41021026100136"
      },
      "geometry": {
        "type": "Point",
        "coordinates": [
          0.9446535730610579,
          -78.72326275537294
        ]
      }
    },
    {
      "type": "Feature",
      "properties": {
        "norad_id": 59371,
        "name": "RESURS-P 4",
        "group": "resource",
        "lat": -7.412135543709822,
        "lon": -63.90255574311865,
        "alt_km": 473.0618240208032,
        "timestamp": "2025-12-14T20:40:31.425737+00:00",
        "meta_object_name": "RESURS-P 4",
        "meta_object_id": "2024-061A",
        "meta_epoch": "2025-12-14T08:10:04.871424",
        "meta_mean_motion": 15.32102392,
        "meta_eccentricity": 0.0001413,
        "meta_inclination": 97.254,
        "meta_ra_of_asc_node": 294.6375,
        "meta_arg_of_pericenter": 54.3863,
        "meta_mean_anomaly": 305.751,
        "meta_ephemeris_type": 0,
        "meta_classification_type": "U",
        "meta_norad_cat_id": 59371,
        "meta_element_set_no": 999,
        "meta_rev_at_epoch": 9545,
        "meta_bstar": 0.00015938808,
        "meta_mean_motion_dot": 4.864e-05,
        "meta_mean_motion_ddot": 0,
        "tle_line1": "1 59371U 24061A   25348.34033416  .00004864  00000+0  15939-3 0  9995",
        "tle_line2": "2 59371  97.2540 294.6375 0001413  54.3863 305.7510 15.32102392 95450"
      },
      "geometry": {
        "type": "Point",
        "coordinates": [
          -63.90255574311865,
          -7.412135543709822
        ]
      }
    },
    {
      "type": "Feature",
      "properties": {
        "norad_id": 59625,
        "name": "LEGION 1",
        "group": "resource",
        "lat": 78.44619868651365,
        "lon": -76.25528782614985,
        "alt_km": 511.4082978730203,
        "timestamp": "2025-12-14T20:40:31.425748+00:00",
        "meta_object_name": "LEGION 1",
        "meta_object_id": "2024-081A",
        "meta_epoch": "2025-12-14T07:34:21.538848",
        "meta_mean_motion": 15.16501018,
        "meta_eccentricity": 0.00038838,
        "meta_inclination": 97.5213,
        "meta_ra_of_asc_node": 62.9405,
        "meta_arg_of_pericenter": 311.0358,
        "meta_mean_anomaly": 49.0539,
        "meta_ephemeris_type": 0,
        "meta_classification_type": "U",
        "meta_norad_cat_id": 59625,
        "meta_element_set_no": 999,
        "meta_rev_at_epoch": 8951,
        "meta_bstar": 0.00029699211,
        "meta_mean_motion_dot": 5.72e-05,
        "meta_mean_motion_ddot": 0,
        "tle_line1": "1 59625U 24081A   25348.31552707  .00005720  00000+0  29699-3 0  9995",
        "tle_line2": "2 59625  97.5213  62.9405 0003883 311.0358  49.0539 15.16501018 89516"
      },
      "geometry": {
        "type": "Point",
        "coordinates": [
          -76.25528782614985,
          78.44619868651365
        ]
      }
    }
  ]
}